NORAD_CAT_ID,OBJECT_NAME,OBJECT_TYPE,EPOCH,MEAN_MOTION,ECCENTRICITY,INCLINATION,RA_OF_ASC_NODE,ARG_OF_PERICENTER,MEAN_ANOMALY,BSTAR,MEAN_MOTION_DOT,MEAN_MOTION_DDOT,TLE_LINE0,TLE_LINE1,TLE_LINE2,SEMIMAJOR_AXIS,PERIOD,APOGEE,PERIGEE,DECAYED
55952.0,STARLINK-5893,PAYLOAD,2023-09-26 22:00:00,15.16912057,0.000328,70.0014,1.052,276.6706,340.7356,-0.052669,-0.00960624,0.0,0 STARLINK-5893,1 55952U 23037AQ  23269.91667824 -.00960624  00000-0 -52669-1 0  9994,2 55952  70.0014   1.0520 0003280 276.6706 340.7356 15.16912057  6028,6893.317,94.93,517.443,512.921,0.0
55952.0,STARLINK-5893,PAYLOAD,2023-09-27 06:00:02,15.16239991,0.000326,70.0018,0.1877,271.7128,5.1038,-0.050281,-0.0090389,0.0,0 STARLINK-5893,1 55952U 23037AQ  23270.25002315 -.00903890  00000-0 -50281-1 0  9991,2 55952  70.0018   0.1877 0003260 271.7128   5.1038 15.16239991 30822,6895.354,94.972,519.467,514.971,0.0
55952.0,STARLINK-5893,PAYLOAD,2023-09-27 14:00:01,15.15579836,0.0003312,70.0018,359.3241,277.9732,17.3596,-0.051368,-0.00906046,0.0,0 STARLINK-5893,1 55952U 23037AQ  23270.58334491 -.00906046  00000-0 -51368-1 0  9993,2 55952  70.0018 359.3241 0003312 277.9732  17.3596 15.15579836  6026,6897.356,95.013,521.505,516.936,0.0
55952.0,STARLINK-5893,PAYLOAD,2023-09-27 22:00:00,15.14953511,0.0003322,70.0016,358.4613,277.2833,35.8273,-0.05562,-0.00959397,0.0,0 STARLINK-5893,1 55952U 23037AQ  23270.91667824 -.00959397  00000-0 -55620-1 0  9991,2 55952  70.0016 358.4613 0003322 277.2833  35.8273 15.14953511 30921,6899.257,95.052,523.414,518.83,0.0
55952.0,STARLINK-5893,PAYLOAD,2023-09-28 14:00:01,15.13624212,0.000338,70.0018,356.7386,279.2933,67.111,-0.05438,-0.00907395,0.0,0 STARLINK-5893,1 55952U 23037AQ  23271.58335648 -.00907395  00000-0 -54380-1 0  9994,2 55952  70.0018 356.7386 0003380 279.2933  67.1110 15.13624212 31020,6903.295,95.136,527.494,522.827,0.0
55952.0,STARLINK-5893,PAYLOAD,2023-09-28 16:00:30,15.13452395,0.0003379,70.0018,356.5224,282.1485,160.0188,-0.053481,-0.00889437,0.0,0 STARLINK-5893,1 55952U 23037AQ  23271.66702546 -.00889437  00000-0 -53481-1 0  9995,2 55952  70.0018 356.5224 0003379 282.1485 160.0188 15.13452395  6023,6903.818,95.147,528.016,523.35,0.0
55952.0,STARLINK-5893,PAYLOAD,2023-09-28 22:00:01,15.12993913,0.000336,70.0016,355.8783,278.4158,83.421,-0.0585,-0.00955109,0.0,0 STARLINK-5893,1 55952U 23037AQ  23271.91668981 -.00955109  00000-0 -58500-1 0  9994,2 55952  70.0016 355.8783 0003360 278.4158  83.4210 15.12993913  5970,6905.213,95.176,529.398,524.757,0.0
55952.0,STARLINK-5893,PAYLOAD,2023-09-29 06:00:00,15.1233253,0.0003351,70.0019,355.0193,274.749,101.6749,-0.056788,-0.00913359,0.0,0 STARLINK-5893,1 55952U 23037AQ  23272.25001157 -.00913359  00000-0 -56788-1 0  9995,2 55952  70.0019 355.0193 0003351 274.7490 101.6749 15.12332530 31126,6907.226,95.217,531.405,526.776,0.0
55952.0,STARLINK-5893,PAYLOAD,2023-09-29 14:00:01,15.1166717,0.0003381,70.0017,354.1608,280.7689,109.541,-0.057396,-0.00906664,0.0,0 STARLINK-5893,1 55952U 23037AQ  23272.58334491 -.00906664  00000-0 -57396-1 0  9998,2 55952  70.0017 354.1608 0003381 280.7689 109.5410 15.11667170  6017,6909.252,95.259,533.453,528.781,0.0
55952.0,STARLINK-5893,PAYLOAD,2023-09-29 22:00:00,15.1103442,0.0003321,70.0015,353.3032,279.4725,123.9242,-0.061493,-0.00950829,0.0,0 STARLINK-5893,1 55952U 23037AQ  23272.91667824 -.00950829  00000-0 -61493-1 0  9999,2 55952  70.0015 353.3032 0003321 279.4725 123.9242 15.11034420 31227,6911.181,95.299,535.341,530.751,0.0
55952.0,STARLINK-5893,PAYLOAD,2023-09-30 06:00:00,15.10378922,0.0003313,70.0017,352.4467,276.2268,139.4716,-0.060393,-0.00919452,0.0,0 STARLINK-5893,1 55952U 23037AQ  23273.25001157 -.00919452  00000-0 -60393-1 0  9993,2 55952  70.0017 352.4467 0003313 276.2268 139.4716 15.10378922  5843,6913.181,95.34,537.336,532.755,0.0
55952.0,STARLINK-5893,PAYLOAD,2023-09-30 14:00:01,15.09709134,0.0003344,70.0015,351.5908,281.9753,145.263,-0.060413,-0.0090408,0.0,0 STARLINK-5893,1 55952U 23037AQ  23273.58334491 -.00904080  00000-0 -60413-1 0  9993,2 55952  70.0015 351.5908 0003344 281.9753 145.2630 15.09709134 31320,6915.225,95.383,539.403,534.778,0.0
55952.0,STARLINK-5893,PAYLOAD,2023-10-01 06:00:00,15.08423074,0.0003243,70.0014,349.8818,274.7972,173.1357,-0.064001,-0.00922987,0.0,0 STARLINK-5893,1 55952U 23037AQ  23274.25001157 -.00922987  00000-0 -64001-1 0  9991,2 55952  70.0014 349.8818 0003243 274.7972 173.1357 15.08423074 31422,6919.155,95.464,543.264,538.776,0.0
55952.0,STARLINK-5893,PAYLOAD,2023-10-01 14:00:01,15.07753601,0.0003207,70.0011,349.0285,278.5653,178.5592,-0.063709,-0.009036,0.0,0 STARLINK-5893,1 55952U 23037AQ  23274.58334491 -.00903600  00000-0 -63709-1 0  9992,2 55952  70.0011 349.0285 0003207 278.5653 178.5592 15.07753601  5834,6921.203,95.506,545.288,540.848,0.0
55952.0,STARLINK-5893,PAYLOAD,2023-10-01 22:00:00,15.07116005,0.000315,70.0009,348.1761,275.6127,189.908,-0.067832,-0.00942346,0.0,0 STARLINK-5893,1 55952U 23037AQ  23274.91667824 -.00942346  00000-0 -67832-1 0  9999,2 55952  70.0009 348.1761 0003150 275.6127 189.9080 15.07116005  5885,6923.155,95.547,547.201,542.839,0.0
55952.0,STARLINK-5893,PAYLOAD,2023-10-02 06:00:00,15.06470172,0.0003205,70.0011,347.3246,272.8363,200.2901,-0.068036,-0.00929756,0.0,0 STARLINK-5893,1 55952U 23037AQ  23275.25001157 -.00929756  00000-0 -68036-1 0  9995,2 55952  70.0011 347.3246 0003205 272.8363 200.2901 15.06470172 31570,6925.133,95.588,549.218,544.779,0.0
55952.0,STARLINK-5893,PAYLOAD,2023-10-02 22:00:00,15.05156784,0.0003135,70.0006,345.624,275.6599,210.3611,-0.071103,-0.00937163,0.0,0 STARLINK-5893,1 55952U 23037AQ  23275.91667824 -.00937163  00000-0 -71103-1 0  9997,2 55952  70.0006 345.6240 0003135 275.6599 210.3611 15.05156784  5494,6929.161,95.671,553.199,548.854,0.0
55952.0,STARLINK-5893,PAYLOAD,2023-10-03 14:00:01,15.03832246,0.0003188,70.0005,343.9268,279.456,216.3256,-0.069879,-0.00892316,0.0,0 STARLINK-5893,1 55952U 23037AQ  23276.58334491 -.00892316  00000-0 -69879-1 0  9999,2 55952  70.0005 343.9268 0003188 279.4560 216.3256 15.03832246 31775,6933.23,95.755,557.305,552.884,0.0
55952.0,STARLINK-5893,PAYLOAD,2023-10-03 22:00:00,15.03195612,0.000309,70.0004,343.0798,276.0168,223.4653,-0.074285,-0.00929562,0.0,0 STARLINK-5893,1 55952U 23037AQ  23276.91667824 -.00929562  00000-0 -74285-1 0  9996,2 55952  70.0004 343.0798 0003090 276.0168 223.4653 15.03195612  5659,6935.187,95.796,559.195,554.909,0.0
55952.0,STARLINK-5893,PAYLOAD,2023-10-04 06:00:00,15.02557901,0.0003129,70.0006,342.2347,272.4712,229.921,-0.075827,-0.00932638,0.0,0 STARLINK-5893,1 55952U 23037AQ  23277.25001157 -.00932638  00000-0 -75827-1 0  9996,2 55952  70.0006 342.2347 0003129 272.4712 229.9210 15.02557901 31875,6937.149,95.837,561.185,556.843,0.0
55952.0,STARLINK-5893,PAYLOAD,2023-10-04 14:00:01,15.01874067,0.0003209,70.0004,341.3874,279.8725,224.6753,-0.073363,-0.00889448,0.0,0 STARLINK-5893,1 55952U 23037AQ  23277.58334491 -.00889448  00000-0 -73363-1 0  9995,2 55952  70.0004 341.3874 0003209 279.8725 224.6753 15.01874067  5758,6939.255,95.88,563.347,558.893,0.0
55952.0,STARLINK-5893,PAYLOAD,2023-10-04 22:00:01,15.01234416,0.000308,70.0002,340.5426,275.9578,230.0072,-0.077513,-0.00921411,0.0,0 STARLINK-5893,1 55952U 23037AQ  23277.91668981 -.00921411  00000-0 -77513-1 0  9994,2 55952  70.0002 340.5426 0003080 275.9578 230.0072 15.01234416  5810,6941.226,95.921,565.229,560.953,0.0
55952.0,STARLINK-5893,PAYLOAD,2023-10-05 14:00:01,14.9985025,0.0003181,70.0003,338.8564,279.437,226.8502,-0.062,-0.00715598,0.0,0 STARLINK-5893,1 55952U 23037AQ  23278.58334491 -.00715598  00000-0 -62000-1 0  9996,2 55952  70.0003 338.8564 0003181 279.4370 226.8502 14.99850250 32081,6945.496,96.01,569.57,565.151,0.0
55952.0,STARLINK-5893,PAYLOAD,2023-10-05 22:00:00,14.99224482,0.0003092,70.0002,338.0133,275.468,229.8244,0.0038625,0.00047394,0.0,0 STARLINK-5893,1 55952U 23037AQ  23278.91667824  .00047394  00000-0  38625-2 0  9999,2 55952  70.0002 338.0133 0003092 275.4680 229.8244 14.99224482 32139,6947.428,96.05,571.441,567.145,0.0
55952.0,STARLINK-5893,PAYLOAD,2023-10-06 14:00:01,14.99264445,0.0003164,70.0004,336.3297,281.2599,221.3021,0.0034546,0.00042393,0.0,0 STARLINK-5893,1 55952U 23037AQ  23279.58335648  .00042393  00000-0  34546-2 0  9991,2 55952  70.0004 336.3297 0003164 281.2599 221.3021 14.99264445  6074,6947.305,96.047,571.368,566.972,0.0
55952.0,STARLINK-5893,PAYLOAD,2023-10-06 22:00:01,14.9927352,0.0003125,70.0002,335.4879,276.478,224.7121,0.0010532,0.00012808,0.0,0 STARLINK-5893,1 55952U 23037AQ  23279.91668981  .00012808  00000-0  10532-2 0  9994,2 55952  70.0002 335.4879 0003125 276.4780 224.7121 14.99273520 32287,6947.277,96.047,571.313,566.971,0.0
55952.0,STARLINK-5893,PAYLOAD,2023-10-07 06:00:00,14.99331776,0.00031,70.0005,334.6461,273.0023,226.7431,-0.001675,-0.00020546,0.0,0 STARLINK-5893,1 55952U 23037AQ  23280.25001157 -.00020546  00000-0 -16750-2 0  9997,2 55952  70.0005 334.6461 0003100 273.0023 226.7431 14.99331776 32334,6947.097,96.043,571.115,566.808,0.0
55952.0,STARLINK-5893,PAYLOAD,2023-10-07 14:00:01,14.99295639,0.0003168,70.0004,333.8042,278.5202,219.9047,0.0033276,0.00040855,0.0,0 STARLINK-5893,1 55952U 23037AQ  23280.58334491  .00040855  00000-0  33276-2 0  9998,2 55952  70.0004 333.8042 0003168 278.5202 219.9047 14.99295639  5954,6947.208,96.045,571.274,566.872,0.0
55952.0,STARLINK-5893,PAYLOAD,2023-10-07 22:00:00,14.99300142,0.0003139,70.0004,332.9624,273.44,223.651,0.0031495,0.00038656,0.0,0 STARLINK-5893,1 55952U 23037AQ  23280.91667824  .00038656  00000-0  31495-2 0  9991,2 55952  70.0004 332.9624 0003139 273.4400 223.6510 14.99300142  5854,6947.194,96.045,571.24,566.879,0.0
55952.0,STARLINK-5893,PAYLOAD,2023-10-08 06:00:00,14.9935764,0.0003145,70.0006,332.1207,271.7954,223.9441,-0.0032603,-0.00039821,0.0,0 STARLINK-5893,1 55952U 23037AQ  23281.25001157 -.00039821  00000-0 -32603-2 0  9999,2 55952  70.0006 332.1207 0003145 271.7954 223.9441 14.99357640 32476,6947.017,96.041,571.067,566.697,0.0
